QIANFAN-105             
1 66047U 25233Q   26023.81945075 -.01957533  00000+0 -24093+1 0  9992
2 66047  88.9934  57.5665 0009760 264.7371  95.2677 13.69260537 13835
QIANFAN-106             
1 66048U 25233R   26026.28616074  .00000016  00000+0  63877-5 0  9991
2 66048  88.9906  57.5439 0001973 103.6373 256.4998 13.50993272 14034
QIANFAN-107             
1 66049U 25233S   26026.22028306  .00000053  00000+0  63959-4 0  9992
2 66049  88.9922  57.5606 0001921  90.0929 270.0443 13.50990687 14021
QIANFAN-108             
1 66050U 25233T   26025.41088296 -.02116954  00000+0 -37777+1 0  9995
2 66050  88.9890  57.6533 0006027 316.2907  43.7763 13.46231909 13915
